#dP2021  3 21  0  0  0.00000000      96 __u+U ITR00 FIT  IAC
## 2150      0.00000000   900.00000000 59294 0.0000000000000
+  126   C01C02C04C05C06C07C08C09C10C11C12C13C14C16C19C20C21
+        C22C23C24C25C26C27C28C29C30C32C33C34C35C36C37C38C39
+        C40C41C42C43C44C45C46C60E01E02E03E04E05E07E08E09E11
+        E12E13E14E15E18E19E21E24E25E26E27E30E31E33E36G01G02
+        G03G04G05G06G07G08G09G10G11G12G13G14G15G16G17G18G19
+        G20G21G22G23G24G25G26G27G28G29G30G31G32J01J02J03J07
+        R01R02R03R04R05R06R07R08R09R10R11R12R13R14R15R16R17
+        R18R19R20R21R22R23R24  0  0  0  0  0  0  0  0  0  0
++        13 13 12 13 10  9 10 10  9  9  9  9  9 10  8  8  8
++         8  8  8  8  8  8  8  8  8  9  9  8  8  9  9 10 10
++         9  9  9  9  8  9  9 13  4  5  5  5  4  5  5  4  5
++         5  5  5  4  5  5  4  5  5  5  5  5  5  5  5  4  4
++         4  4  4  3  4  4  4  4  5  4  4  4  4  4  4  4  4
++         4  4  4  4  4  4  4  4  4  4  4  4  4  9  9 10 14
++         8  6  6  6  6 14  6  6  6 13  8  6  8  6  6  8  6
++         6  8  7  6  8 14  6  0  0  0  0  0  0  0  0  0  0
%c M  cc GPS ccc cccc cccc cccc cccc ccccc ccccc ccccc ccccc
%c cc cc ccc ccc cccc cccc cccc cccc ccccc ccccc ccccc ccccc
%f  0.0000000  0.000000000  0.00000000000  0.000000000000000
%f  0.0000000  0.000000000  0.00000000000  0.000000000000000
%i    0    0    0    0      0      0      0      0         0
%i    0    0    0    0      0      0      0      0         0
/* INFORMATION & ANALYSIS CENTER (IAC)            RAPID DATA
/* S/V CLOCKS ARE ALIGNED TO GNSS TIME                      
/* G:C1WC2W R:C1PC2P E:C1XC5X C:C2IC6I J:C1CC2S             
/* PCV:IGS14_2134 OL/AL:FES2004  NONE     YN ORB:CoN CLK:CoN
*  2021 03 21  0 45  0.00000000
PC01 -34334.962349  24496.089159     76.356751   -636.666591
PC02   4508.907227  41920.730214   -185.789209    422.777485
PC04 -39616.196664  14430.402715   -662.372401    911.701415
PC05  21954.251486  36016.627926    -46.443794     33.053307
PC06 -21412.866681  23793.988220  27645.530638    196.822990
PC07 -17231.439539  37933.816388   8306.255619    -37.785995
PC08  -6327.633395  23335.554239 -34350.690589   -898.597983
PC09  -5352.062895  24946.043291  33789.771969    654.097070
PC10  -7035.803142  41532.633019  -4666.505068    -68.635674
PC11 -17947.423230 -11438.690612  18130.267009   -856.988321
PC12   1954.287869 -15357.866400  23252.404418    880.292205
PC13   6346.188880  32012.144179 -26440.724275    188.513490
PC14  -8279.579554 -16156.416284 -21148.382288    261.486602
PC16 -17456.285810  24240.555276  29774.952260   -743.952833
PC19  14427.343385   6683.938728  22962.803967    769.028073
PC20   1921.736372  22095.238679  16975.122306   -934.010218
PC21  12401.773803 -24980.396443   -495.495602   -895.909294
PC22  18958.015591 -13026.687676  15787.876130   -925.569915
PC23 -17009.467391   2513.954261  21978.098709   -879.049669
PC24 -10642.058631 -25068.072504  -6168.791711   -788.656445
PC25 -20266.602347 -15109.365069  11836.204176   -945.303863
PC26   3223.535326 -19934.176879 -19286.166155    932.546209
PC27 -12747.828511  14376.003946 -20246.612706    501.989191
PC28 -26597.209929   5351.202726  -6534.440103    -96.014553
PC29  25012.790771   5828.695175 -10930.700598    367.745307
PC30   8508.265123  14745.755975 -22119.371409    453.953145
PC32 -12188.297880  25104.358718    545.769146   -917.430188
PC33 -14450.711494  -6656.862826 -22915.669054   -945.521745
PC34  -9197.682205 -14630.271739  21897.901917   -714.399501
PC35  26532.632839  -6095.483951   6224.642485   -365.216037
PC36  19841.534654  15852.679137 -11543.831492   -739.459387
PC37  -4427.595856  19240.470786  19725.297281   -879.848066
PC38  -4540.094415  27181.000471 -31855.354673    137.098010
PC39 -15418.542840  25374.242997  29904.621953     29.561107
PC40 -12804.854811  40061.081635  -4018.244116    142.985105
PC41 -18935.041706  12869.593797 -15899.744328   -933.917055
PC42  -1386.431828 -22480.016687 -16419.772509   -938.173157
PC43 -24711.208809  -6301.164576  11293.687496   -648.700632
PC44  12535.234299 -14840.963800  20041.995046     96.220506
PC45  16855.320557  -2600.558163 -22085.993982    392.140422
PC46  11346.968598  24908.976327   5332.882055    353.623254
PC60   7293.585176  41502.069661  -1678.057853     -0.016754
PE01   8480.265691  27005.775510  -8645.359871  -1069.826020
PE02  -8536.729518 -26972.719991   8732.685086    206.446287
PE03  -6271.626273 -16314.019675 -23886.332670   -411.137927
PE04  22151.784501   1142.868701  19607.781995   -733.163509
PE05  13550.759800 -22150.023109 -14204.723436   -295.398811
PE07 -25252.714435  15015.400339  -3641.168367   -515.344079
PE08 -22261.208504   -644.793027 -19500.530436   6030.091921
PE09  25118.826049 -15244.661360   3524.132684   5728.029559
PE11  22257.186053  -3890.428659  19132.478287   6184.337005
PE12  27529.233495  10749.164020   1900.450776   5300.178215
PE13 -22478.527315   3608.638042 -18901.748824    413.845219
PE14  -1211.862365  21742.269235 -24224.031634  -1368.832405
PE15 -27547.096806 -10643.967849  -1910.536194    823.625000
PE18  -2555.405935 -14813.428539  17979.256386  -1496.961627
PE19   3896.536516  17493.838498  23563.978828    231.922076
PE21  -3671.013351  27772.774103   9542.124748   -654.751898
PE24  14535.865743 -11654.615327 -23024.383596   -803.621873
PE25   3795.427753 -27706.105742  -9716.347943   -528.953107
PE26  -3509.027823  16152.130527 -24547.296838   2018.517391
PE27 -14186.837871  12442.271353  22800.209688      6.126473
PE30 -16137.959950 -11106.632277  22181.620974   3090.598652
PE31  16288.399954  10078.913986 -22563.322075   -479.366125
PE33  16416.839093  18599.053338 -16148.669640   -466.727336
PE36   4194.575550 -15712.050371  24739.885147   -182.698350
PG01  22357.073053  14422.190370   2529.748305    736.464719
PG02  -7130.614205 -18981.766935  17793.119307   -588.075185
PG03  13112.557369  10456.188544  20541.604298   -113.769829
PG04  19976.455520   4634.921447  16915.825069   -187.371443
PG05  -5006.692164 -24291.904913  -9397.194390    -36.787257
PG06   5959.434249 -13767.780915  21976.939784      1.956136
PG07  22017.987010   3437.729930 -14470.878477     96.508084
PG08  13521.815962   9517.615013 -20849.263710    -14.500745
PG09  24735.898699  -5158.022701   8159.905039   -332.720600
PG10 -11657.336905  19039.344238 -14069.607499    -85.230042
PG11  22880.964810  10127.232537  -8799.766518      6.821720
PG12 -10560.248879 -14857.468320  19121.798121    -16.775945
PG13  -3093.083787 -14825.052006 -21948.811973    110.227634
PG14  13166.039059 -17722.034751 -14767.269535     99.680892
PG15 -15127.897298  -8782.713258 -20426.167644   -161.747885
PG16    234.889716  25292.459522  -7515.670421   -297.131336
PG17  20829.671412 -14154.260810   8860.851833    413.055899
PG18 -20044.394093    -98.089462 -17460.981197    350.910784
PG19  15077.763705 -15507.376140  15064.097645    -23.672769
PG20 -15429.425914   4087.218659 -21202.736218    524.002249
PG21  20599.373916  16373.860378  -4364.991630    104.739866
PG22  11137.940024  18951.946000  15227.920417   -656.085923
PG23 -14854.408985   8409.730430 -20357.964209    116.953014
PG24 -21175.347666 -16099.084170  -3299.168187      0.799508
PG25 -15144.474077    318.546441  21541.227661    102.820585
PG26  -4149.224383  25844.060678   3511.179277     60.918836
PG27    528.980435  15693.647370 -21528.099341    -97.797753
PG28  12352.721151 -19961.634709 -12048.440837    599.117883
PG29 -25157.225773   3670.196650   7716.191391   -315.521097
PG30  14198.222778  -8381.332245 -20810.393357   -401.360377
PG31  -3987.299469  15581.630981  20977.151980   -106.797357
PG32 -18922.441724  15956.784985   9499.514511     21.495629
PJ01 -27137.928195  31890.096187   -393.894578   -356.884101
PJ02 -26063.499653  24466.416941  27221.648265      3.754308
PJ03 -33840.305423  17131.667444 -13791.051324     -2.034850
PJ07 -25388.699978  33659.434412     40.684763     -0.006917
PR01 -16630.205663   8181.826722 -17528.719541     76.686639
PR02 -15058.628022  20479.555027   1748.735084    471.574209
PR03  -3783.840295  18321.997849  17358.372125     32.752832
PR04   9240.437761   5763.892826  23096.230963     78.786671
PR05  17280.772142  -9931.933162  15945.828700     68.513680
PR06  14082.125641 -21120.223124  -2637.853172    194.779301
PR07   3422.545777 -18062.125006 -17664.928686    -42.556263
PR08  -9332.695898  -5783.904252 -22965.685060    -58.046942
PR09   3253.262510 -16521.795101 -19121.551557    -16.114724
PR10  -7159.225955 -23859.738824  -5679.165584    -67.302170
PR11 -13785.116210 -17696.181627  12142.551104      2.077804
PR12 -11970.223315   -867.317584  22531.436897    214.227228
PR13  -3316.485105  16050.345020  19523.356966    -52.272535
PR14   7466.135496  23950.224795   4654.487881     62.242188
PR15  13627.883519  17598.312909 -12442.439632    104.814557
PR16  11751.302177   -625.414052 -22645.876931    -12.776543
PR17   5672.596437  11025.134045 -22276.118789    409.701886
PR18  20946.382454   8474.405727 -11879.643302     70.478836
PR19  25061.848566   2486.030173   4064.761838   -136.518026
PR20  13945.382743  -6717.699037  20300.535882    -45.673876
PR21  -6961.796838 -10993.206250  21945.199357   -195.880676
PR22 -21465.717195  -8213.529320  10940.040538   -103.645683
PR23 -22979.874520   1464.880280 -10969.837404    373.356642
PR24 -13208.964674   7590.183881 -20442.006329     35.774744
EOF
